ADRAS-J                 
1 58992U 24034A   24215.18153044  .00004121  00000+0  38086-3 0  9991
2 58992  98.2143 190.3116 0041950 257.0124 102.6409 14.94531564 24733
